UNKNOWN                 
1 81036U          23282.97256581  .00040771  00000+0  87137-1 0  9993
2 81036  66.0607 249.8927 2666158   4.3768 357.6084  9.19666196329053
UNKNOWN                 
1 81052U          23279.24302120  .00020469  00000+0  60989-2 0  9997
2 81052  65.7783 221.7058 0623727 333.8165  23.2544 13.67370568490509
UNKNOWN                 
1 81069U          23283.31240816  .00005827  00000+0  88880-2 0  9992
2 81069 100.3040 134.5998 0060387 187.2073 172.8198 13.51665009408245
UNKNOWN                 
1 81078U          23270.51908321  .00000191  00000+0  69170-2 0  9992
2 81078  65.1119  96.0898 0192879 180.0060 208.5164 11.22044265404045
UNKNOWN                 
1 81111U          23283.50379598  .00031658  00000+0  53627-2 0  9993
2 81111  62.8854  13.9242 4148253 326.5493  13.0564  7.07037991213656
UNKNOWN                 
1 81123U 70025    23280.89265242  .00001607  00000+0  16262-2 0  9994
2 81123 100.0392 306.4997 0002129 334.2934  25.8109 13.78854842496354
UNKNOWN                 
1 81134U          23282.62004452  .00000237  00000+0  84836-3 0  9990
2 81134  90.2616 345.8339 0022384 309.7396  50.1749 12.92568404359873
UNKNOWN                 
1 81161U          23283.55219598 -.00000096  00000+0 -48812-4 0  9992
2 81161 100.3919  44.2191 0065164 126.4725 234.2447 13.72416430447059
UNKNOWN                 
1 81219U 81053    23281.60988736  .00001269  00000+0  11982-2 0  9991
2 81219  82.9256 243.3994 0020580 303.4771  56.4421 13.80413338497623
UNKNOWN                 
1 81228U          23280.24541642  .00007631  00000+0  31431-2 0  9994
2 81228  70.5265 243.4357 0085023 101.7834 259.2844 14.25203766511847
UNKNOWN                 
1 81247U 81053    23283.39094207  .00072381  00000+0  10065-1 0  9994
2 81247  83.2290 167.3465 0022541 118.9109 241.4369 14.77275272521239
UNKNOWN                 
1 81254U 70025    23278.12698824  .00002047  00000+0  15196-2 0  9992
2 81254 100.3697 224.2061 0072758  16.9512 343.4052 13.95276471501134
UNKNOWN                 
1 81264U          23282.45051498  .00022118  00000+0  34426-2 0  9998
2 81264  99.4127   6.4293 0084159 241.7561 117.5126 14.70618202492685
UNKNOWN                 
1 81279U          23283.27215296  .00005542  00000+0  22498-2 0  9991
2 81279  98.1611  35.1682 0218480 183.9007 176.0475 14.15835491350000
UNKNOWN                 
1 81301U          23278.09501315  .00000434  00000+0  51018-3 0  9997
2 81301  66.7606  44.4754 0084778  46.1073 128.2776 13.75878523496314
UNKNOWN                 
1 81311U 90105    23282.51023656  .00002217  00000+0  47381-3 0  9991
2 81311  98.8131 287.9578 0136786  27.5863 121.8476 14.54247616523913
UNKNOWN                 
1 81317U 80089    23282.34471807  .00000357  00000+0  70404-3 0  9998
2 81317  67.1354 127.0874 0217313 230.3788 308.9884 13.37418979482247
UNKNOWN                 
1 81323U          23262.95836440  .00013549  00000+0  25913-2 0  9994
2 81323  65.7674  89.5171 0453012  20.6612 341.2147 14.14611196996861
UNKNOWN                 
1 81329U          23281.91137419  .00004905  00000+0  18376-2 0  9998
2 81329  65.8260 141.5751 0858378  28.7234 348.1017 13.15782116511120
UNKNOWN                 
1 81341U          23282.57923145  .00001714  00000+0  43405-2 0  9990
2 81341  99.5354 318.6223 0434298 153.2894 209.1306 12.90893849420573
UNKNOWN                 
1 81342U          23283.40444858  .00009080  00000+0  47839-2 0  9992
2 81342  70.8977 191.7071 0146616 122.0278 239.5182 14.08789716505506
UNKNOWN                 
1 81343U          23283.37987953  .00008737  00000+0  90660-3 0  9996
2 81343  85.8733 259.0223 0008287 211.6255 148.4474 14.89827341335511
UNKNOWN                 
1 81357U          23283.06470346  .00051790  00000+0  31536-2 0  9993
2 81357  97.4087 143.2755 0134669 179.1026 181.0468 15.02862977417246
UNKNOWN                 
1 81359U          23282.04607024  .00001317  00000+0  13522-2 0  9992
2 81359  66.7980 152.7195 0116008 150.0249 210.7532 13.76444991495872
UNKNOWN                 
1 81366U          23282.03579589  .00003134  00000+0  11650-2 0  9992
2 81366  65.8841 149.3154 0727149 103.9444 264.3511 13.40983018959349
UNKNOWN                 
1 81371U          23279.87168423  .00005085  00000+0  99181-3 0  9990
2 81371  98.8942 304.4641 0081616 310.4370  48.9730 14.61370604524963
UNKNOWN                 
1 81386U          23282.22142616  .00008693  00000+0  36979-2 0  9998
2 81386  71.0529 261.6456 0118097 252.0188 106.8038 14.21737131510602
UNKNOWN                 
1 81390U          23282.36257805  .00000487  00000+0  40728-2 0  9995
2 81390 103.1412 106.4150 0170315  93.7449 268.3099 12.35158491401860
UNKNOWN                 
1 81391U          23280.03407631  .00015975  00000+0  62232-2 0  9994
2 81391  81.2011  29.0745 0014023 252.3261 107.6390 14.29585266467231
UNKNOWN                 
1 81392U          23283.21488855  .00006292  00000+0  69155-2 0  9998
2 81392 100.4296 185.4359 0043289 260.4187 253.5020 13.72164704492812
UNKNOWN                 
1 81402U          23283.06655464  .00027851  00000+0  84814-2 0  9998
2 81402  98.6959 319.6632 0004622 235.2710 124.8043 14.41924163332259
UNKNOWN                 
1 81405U          23282.88599802  .00002485  00000+0  20112-2 0  9990
2 81405  99.5349 307.3280 0166860 179.6059 180.5256 13.84902641451618
UNKNOWN                 
1 81406U          23281.85850649  .00002336  00000+0  97095-3 0  9996
2 81406  65.8127 138.3579 0887833 311.6098  41.2059 13.07083294429453
UNKNOWN                 
1 81409U 87068    23282.92552607  .00028113  00000+0  76102-2 0  9996
2 81409  82.6575 144.8120 0049522 318.8671  40.8795 14.46840527515109
UNKNOWN                 
1 81418U          23283.39584515  .00002392  00000+0  46482-2 0  9991
2 81418 100.2949  74.2743 0055054  35.7169 324.7620 13.37018623292951
UNKNOWN                 
1 81425U          23281.98507320  .00007001  00000+0  77814-2 0  9996
2 81425  99.4724   4.8138 0074322   2.2364 357.9101 13.70602441332918
UNKNOWN                 
1 81427U          23281.98431780  .00001770  00000+0  10977-2 0  9998
2 81427  98.8223 176.7084 0087643 111.6048 249.4485 14.04491211439962
UNKNOWN                 
1 81438U          23274.76530385  .00003199  00000+0  51664-2 0  9994
2 81438 100.3066 106.6446 0051513 239.0065 120.6000 13.48694937483456
UNKNOWN                 
1 81439U          23281.64352051  .00000823  00000+0  24386-2 0  9994
2 81439  67.1610 240.1615 0604178 333.1761  23.9149 12.61762096161429
UNKNOWN                 
1 81449U 85042    23283.30737290  .00018268  00000+0  51767-2 0  9996
2 81449  66.8069  25.5235 0035960  33.4312 326.9055 14.45176498517107
UNKNOWN                 
1 81478U          23283.17800278  .00005034  00000+0  21516-2 0  9997
2 81478  98.9973 168.6786 0165606 122.9013  25.6906 14.18298942509919
UNKNOWN                 
1 81488U 75052    23283.43534904  .00000317  00000+0  51816-3 0  9992
2 81488 100.1024 129.5084 0044104 166.7182 312.7541 13.55827973488960
UNKNOWN                 
1 81497U          23283.33881083  .00008817  00000+0  95876-2 0  9991
2 81497 100.3357  97.1902 0031020 241.8319 237.7131 13.72836892106811
UNKNOWN                 
1 81499U          23282.34199674  .00006158  00000+0  19898-2 0  9997
2 81499  74.0522 257.3370 0002288 218.4054 141.6938 14.39300235367664
UNKNOWN                 
1 81535U          23283.35053307  .00002376  00000+0  10506-2 0  9997
2 81535  98.1615  62.5690 0245996 280.9322  76.4264 14.09242465275339
UNKNOWN                 
1 81536U 73086    23282.29239712  .00000745  00000+0  48909-2 0  9996
2 81536 102.0312 121.6158 0032007 346.7007 189.3428 12.54622325452005
UNKNOWN                 
1 81537U 93016    23281.34837769  .00000767  00000+0  48097-3 0  9996
2 81537  71.0400 315.5436 0081027 271.9095  87.2744 14.06092720508473
UNKNOWN                 
1 81552U          23283.32346835  .00001314  00000+0  29491-2 0  9998
2 81552  99.0333 311.4810 0266035 122.3051 240.4131 13.16383333474659
UNKNOWN                 
1 81564U          23274.16039405  .00025468  00000+0  88089-2 0  9999
2 81564  81.1770  76.6866 0029958 178.4301 181.6983 14.35334296451338
UNKNOWN                 
1 81569U          23283.42680277  .00000417  00000+0  20032-2 0  9993
2 81569  28.0772 317.4782 0315681 314.3266  43.1774 12.46292494453650
UNKNOWN                 
1 81579U          23283.42389512  .00050803  00000+0  22029-1 0  9993
2 81579 100.0697 335.4594 0187058 157.9879 202.9458 14.15008258500169
UNKNOWN                 
1 81599U          23281.08319006  .00000960  00000+0  18253-2 0  9990
2 81599  67.2977 202.1039 0258271 295.0492  75.8731 13.29872516479088
UNKNOWN                 
1 81605U          23283.31970152  .00001054  00000+0  49238-2 0  9993
2 81605  56.4370 298.6685 0147439 142.6196 218.5095 12.78933613 84474
UNKNOWN                 
1 81614U 76077    23280.02099127  .00006246  00000+0  43946-1 0  9996
2 81614 101.8436 297.3108 0389749 177.2631 183.0681 12.26001944439767
UNKNOWN                 
1 81615U 92021    23282.89710970  .00009479  00000+0  34487-2 0  9999
2 81615  65.8275 104.0735 0805027 142.5043 223.5051 13.26565562477127
UNKNOWN                 
1 81617U 73086    23283.47615042  .00000527  00000+0  34181-2 0  9996
2 81617 101.2674 122.4019 0043042   4.7558 355.3919 12.56652837453302
UNKNOWN                 
1 81624U          23281.09140963  .00006953  00000+0  15108-2 0  9998
2 81624  66.9855 181.2055 0088526 178.8246 181.3093 14.56150076523144
UNKNOWN                 
1 81640U          23283.60194491  .00000581  00000+0  58897-3 0  9994
2 81640  65.8263 314.2347 0984191  39.0455 327.7553 12.55979320410294
UNKNOWN                 
1 81652U 76077    23281.42070927  .00000814  00000+0  10226-2 0  9991
2 81652 102.1548 354.4154 0375119 337.0250  80.0602 13.42332817471728
UNKNOWN                 
1 81661U          23283.01035225  .00049323  00000+0  90918-2 0  9997
2 81661  98.4204 209.7012 0053522 100.4894 260.2345 14.64356663419599
